HXMT (HUIYAN)           
1 42758U 17034A   26062.85342955  .00007373  00000+0  36918-3 0  9997
2 42758  43.0149  49.1173 0032304 200.1957 159.7615 15.17370185481656
SAOCOM 1A               
1 43641U 18076A   26062.81958411  .00001337  00000+0  17441-3 0  9996
2 43641  97.8883 251.0750 0001310  82.9258 277.2104 14.82164027400497
H-2A R/B                
1 43682U 18084L   26062.56494691  .00025622  00000+0  61481-3 0  9993
2 43682  98.8736 278.6455 0025829  46.0108 314.3257 15.41030375404831
SAOCOM 1B               
1 46265U 20059A   26062.85080765  .00000319  00000+0  46652-4 0  9993
2 46265  97.8882 250.2038 0001445  80.3099 279.8277 14.82164432297881
CSS (TIANHE)            
1 48274U 21035A   26062.82771683  .00035156  00000+0  41863-3 0  9998
2 48274  41.4653 243.8214 0006655 237.2014 122.8183 15.60361861276697
COSMOS 2550             
1 48865U 21056A   26062.84426815 -.00000190  00000+0  62619-7 0  9990
2 48865  67.1444  58.6135 0008329 269.0013  91.0187 15.33842321262569
CZ-2C R/B               
1 52794U 22058K   26062.21063122  .00036042  00000+0  53678-3 0  9993
2 52794  50.1905 351.6043 0042180 173.2115 186.9436 15.53679339209128
CZ-2C R/B               
1 54039U 22132E   26062.54014348  .00053653  00000+0  62562-3 0  9991
2 54039  97.2955  65.6729 0020775 110.7693 249.5793 15.61225239189411
GSLV R/B                
1 54149U 22138AN  26062.70371657  .00005236  00000+0  45381-3 0  9990
2 54149  87.3886 168.3653 0022117 167.4561 192.7226 14.96723025183033
XRISM                   
1 57800U 23137A   26062.82919114  .00008236  00000+0  46956-3 0  9998
2 57800  31.0031 321.5673 0008170 339.2113  20.8192 15.11419327136900
ACS3                    
1 59588U 24077B   26062.73701596  .00028875  00000+0  23356-1 0  9998
2 59588  97.2111   5.1871 0055273  92.6994 268.0498 13.89310612 93374
SZ-21 MODULE            
1 66515U 25246C   26062.76916662  .00044751  00000+0  39281-3 0  9997
2 66515  41.4730 239.7929 0001447 287.9355  72.1329 15.68011820 17149
